{
  "type": "FeatureCollection",
  "metadata": {
    "scene_id": "S1A_IW_GRDH_20170202T0039_DEMO-A",
    "issued_utc": "2017-02-02T00:59:42Z",
    "horizons_h": [
      6,
      12,
      24
    ],
    "forcing": {
      "currents": "MOCK",
      "wind": "MOCK",
      "windage": 0.03
    },
    "crs": "EPSG:4326"
  },
  "features": [
    {
      "type": "Feature",
      "geometry": {
        "type": "Polygon",
        "coordinates": [
          [
            [
              80.350535,
              13.041315
            ],
            [
              80.351119,
              13.039633
            ],
            [
              80.351177,
              13.037697
            ],
            [
              80.350708,
              13.035527
            ],
            [
              80.349717,
              13.033143
            ],
            [
              80.348213,
              13.030568
            ],
            [
              80.346211,
              13.027826
            ],
            [
              80.34373,
              13.024945
            ],
            [
              80.340794,
              13.021952
            ],
            [
              80.337431,
              13.018876
            ],
            [
              80.333674,
              13.015746
            ],
            [
              80.329558,
              13.012592
            ],
            [
              80.325125,
              13.009446
            ],
            [
              80.320415,
              13.006336
            ],
            [
              80.315475,
              13.003294
            ],
            [
              80.310351,
              13.000349
            ],
            [
              80.305095,
              12.997528
            ],
            [
              80.299755,
              12.994859
            ],
            [
              80.294384,
              12.992368
            ],
            [
              80.289033,
              12.990079
            ],
            [
              80.283753,
              12.988013
            ],
            [
              80.278597,
              12.986191
            ],
            [
              80.273612,
              12.98463
            ],
            [
              80.268848,
              12.983346
            ],
            [
              80.26435,
              12.98235
            ],
            [
              80.260161,
              12.981652
            ],
            [
              80.256322,
              12.981259
            ],
            [
              80.25287,
              12.981175
            ],
            [
              80.249838,
              12.9814
            ],
            [
              80.247255,
              12.981933
            ],
            [
              80.245146,
              12.982768
            ],
            [
              80.243531,
              12.983897
            ],
            [
              80.242427,
              12.985309
            ],
            [
              80.241843,
              12.986991
            ],
            [
              80.241785,
              12.988926
            ],
            [
              80.242254,
              12.991096
            ],
            [
              80.243245,
              12.993481
            ],
            [
              80.244749,
              12.996056
            ],
            [
              80.246751,
              12.998797
            ],
            [
              80.249232,
              13.001678
            ],
            [
              80.252168,
              13.004672
            ],
            [
              80.255531,
              13.007748
            ],
            [
              80.259288,
              13.010878
            ],
            [
              80.263403,
              13.014031
            ],
            [
              80.267837,
              13.017178
            ],
            [
              80.272547,
              13.020287
            ],
            [
              80.277487,
              13.023329
            ],
            [
              80.282611,
              13.026275
            ],
            [
              80.287867,
              13.029096
            ],
            [
              80.293207,
              13.031764
            ],
            [
              80.298578,
              13.034256
            ],
            [
              80.303929,
              13.036545
            ],
            [
              80.309209,
              13.03861
            ],
            [
              80.314365,
              13.040432
            ],
            [
              80.31935,
              13.041993
            ],
            [
              80.324114,
              13.043278
            ],
            [
              80.328612,
              13.044274
            ],
            [
              80.332801,
              13.044972
            ],
            [
              80.33664,
              13.045364
            ],
            [
              80.340092,
              13.045449
            ],
            [
              80.343124,
              13.045223
            ],
            [
              80.345707,
              13.044691
            ],
            [
              80.347816,
              13.043856
            ],
            [
              80.349431,
              13.042727
            ],
            [
              80.350535,
              13.041315
            ]
          ]
        ]
      },
      "properties": {
        "horizon_h": 6,
        "valid_utc": "2017-02-02T06:39:42Z",
        "confidence_level": 0.5,
        "area_km2": 41.512,
        "source": "synthetic"
      }
    },
    {
      "type": "Feature",
      "geometry": {
        "type": "Polygon",
        "coordinates": [
          [
            [
              80.388373,
              13.060917
            ],
            [
              80.389366,
              13.058058
            ],
            [
              80.389464,
              13.054767
            ],
            [
              80.388667,
              13.051078
            ],
            [
              80.386982,
              13.047025
            ],
            [
              80.384425,
              13.042647
            ],
            [
              80.381022,
              13.037986
            ],
            [
              80.376804,
              13.033089
            ],
            [
              80.371813,
              13.028
            ],
            [
              80.366096,
              13.02277
            ],
            [
              80.359709,
              13.017449
            ],
            [
              80.352713,
              13.012088
            ],
            [
              80.345175,
              13.006739
            ],
            [
              80.337169,
              13.001454
            ],
            [
              80.32877,
              12.996282
            ],
            [
              80.320061,
              12.991274
            ],
            [
              80.311124,
              12.986479
            ],
            [
              80.302047,
              12.981942
            ],
            [
              80.292916,
              12.977707
            ],
            [
              80.283819,
              12.973815
            ],
            [
              80.274844,
              12.970304
            ],
            [
              80.266078,
              12.967207
            ],
            [
              80.257604,
              12.964553
            ],
            [
              80.249505,
              12.96237
            ],
            [
              80.241858,
              12.960676
            ],
            [
              80.234737,
              12.95949
            ],
            [
              80.228211,
              12.958822
            ],
            [
              80.222342,
              12.958679
            ],
            [
              80.217187,
              12.959062
            ],
            [
              80.212796,
              12.959967
            ],
            [
              80.209211,
              12.961387
            ],
            [
              80.206467,
              12.963306
            ],
            [
              80.204589,
              12.965707
            ],
            [
              80.203596,
              12.968566
            ],
            [
              80.203498,
              12.971856
            ],
            [
              80.204295,
              12.975546
            ],
            [
              80.20598,
              12.979599
            ],
            [
              80.208537,
              12.983977
            ],
            [
              80.21194,
              12.988637
            ],
            [
              80.216158,
              12.993535
            ],
            [
              80.221149,
              12.998623
            ],
            [
              80.226866,
              13.003853
            ],
            [
              80.233253,
              13.009174
            ],
            [
              80.240249,
              13.014535
            ],
            [
              80.247787,
              13.019884
            ],
            [
              80.255793,
              13.02517
            ],
            [
              80.264192,
              13.030342
            ],
            [
              80.272901,
              13.035349
            ],
            [
              80.281838,
              13.040144
            ],
            [
              80.290915,
              13.044681
            ],
            [
              80.300046,
              13.048916
            ],
            [
              80.309143,
              13.052808
            ],
            [
              80.318118,
              13.05632
            ],
            [
              80.326884,
              13.059417
            ],
            [
              80.335358,
              13.06207
            ],
            [
              80.343457,
              13.064254
            ],
            [
              80.351104,
              13.065947
            ],
            [
              80.358225,
              13.067133
            ],
            [
              80.364751,
              13.067801
            ],
            [
              80.37062,
              13.067945
            ],
            [
              80.375774,
              13.067562
            ],
            [
              80.380165,
              13.066656
            ],
            [
              80.383751,
              13.065237
            ],
            [
              80.386495,
              13.063318
            ],
            [
              80.388373,
              13.060917
            ]
          ]
        ]
      },
      "properties": {
        "horizon_h": 6,
        "valid_utc": "2017-02-02T06:39:42Z",
        "confidence_level": 0.9,
        "area_km2": 119.969,
        "source": "synthetic"
      }
    },
    {
      "type": "Feature",
      "geometry": {
        "type": "Polygon",
        "coordinates": [
          [
            [
              80.348612,
              13.01123
            ],
            [
              80.349727,
              13.008387
            ],
            [
              80.350151,
              13.005219
            ],
            [
              80.349879,
              13.001756
            ],
            [
              80.348915,
              12.998032
            ],
            [
              80.347267,
              12.994083
            ],
            [
              80.344952,
              12.989946
            ],
            [
              80.341992,
              12.985662
            ],
            [
              80.338416,
              12.981271
            ],
            [
              80.334257,
              12.976816
            ],
            [
              80.329556,
              12.97234
            ],
            [
              80.324358,
              12.967887
            ],
            [
              80.318713,
              12.963498
            ],
            [
              80.312676,
              12.959216
            ],
            [
              80.306304,
              12.955082
            ],
            [
              80.29966,
              12.951137
            ],
            [
              80.292806,
              12.947418
            ],
            [
              80.28581,
              12.943961
            ],
            [
              80.278738,
              12.940799
            ],
            [
              80.271658,
              12.937963
            ],
            [
              80.26464,
              12.93548
            ],
            [
              80.257749,
              12.933374
            ],
            [
              80.251053,
              12.931666
            ],
            [
              80.244617,
              12.930371
            ],
            [
              80.238501,
              12.929502
            ],
            [
              80.232766,
              12.929068
            ],
            [
              80.227466,
              12.929072
            ],
            [
              80.222652,
              12.929515
            ],
            [
              80.21837,
              12.930393
            ],
            [
              80.214663,
              12.931696
            ],
            [
              80.211565,
              12.933413
            ],
            [
              80.209107,
              12.935527
            ],
            [
              80.207312,
              12.938017
            ],
            [
              80.206197,
              12.94086
            ],
            [
              80.205773,
              12.944028
            ],
            [
              80.206045,
              12.947491
            ],
            [
              80.207009,
              12.951215
            ],
            [
              80.208656,
              12.955164
            ],
            [
              80.210971,
              12.959301
            ],
            [
              80.213931,
              12.963585
            ],
            [
              80.217508,
              12.967976
            ],
            [
              80.221667,
              12.972431
            ],
            [
              80.226368,
              12.976907
            ],
            [
              80.231566,
              12.98136
            ],
            [
              80.237211,
              12.985749
            ],
            [
              80.243248,
              12.990031
            ],
            [
              80.24962,
              12.994165
            ],
            [
              80.256264,
              12.99811
            ],
            [
              80.263118,
              13.001829
            ],
            [
              80.270114,
              13.005286
            ],
            [
              80.277186,
              13.008448
            ],
            [
              80.284265,
              13.011284
            ],
            [
              80.291284,
              13.013767
            ],
            [
              80.298175,
              13.015873
            ],
            [
              80.30487,
              13.017581
            ],
            [
              80.311307,
              13.018876
            ],
            [
              80.317423,
              13.019745
            ],
            [
              80.323158,
              13.02018
            ],
            [
              80.328458,
              13.020175
            ],
            [
              80.333272,
              13.019732
            ],
            [
              80.337553,
              13.018854
            ],
            [
              80.341261,
              13.017551
            ],
            [
              80.344359,
              13.015834
            ],
            [
              80.346817,
              13.01372
            ],
            [
              80.348612,
              13.01123
            ]
          ]
        ]
      },
      "properties": {
        "horizon_h": 12,
        "valid_utc": "2017-02-02T12:39:42Z",
        "confidence_level": 0.5,
        "area_km2": 93.533,
        "source": "synthetic"
      }
    },
    {
      "type": "Feature",
      "geometry": {
        "type": "Polygon",
        "coordinates": [
          [
            [
              80.398067,
              13.036854
            ],
            [
              80.399962,
              13.032021
            ],
            [
              80.400683,
              13.026636
            ],
            [
              80.400221,
              13.020749
            ],
            [
              80.398582,
              13.014418
            ],
            [
              80.395781,
              13.007704
            ],
            [
              80.391846,
              13.000672
            ],
            [
              80.386814,
              12.993388
            ],
            [
              80.380733,
              12.985924
            ],
            [
              80.373663,
              12.978351
            ],
            [
              80.365671,
              12.970742
            ],
            [
              80.356835,
              12.963171
            ],
            [
              80.347239,
              12.955709
            ],
            [
              80.336975,
              12.94843
            ],
            [
              80.326144,
              12.941404
            ],
            [
              80.314848,
              12.934697
            ],
            [
              80.303197,
              12.928374
            ],
            [
              80.291303,
              12.922497
            ],
            [
              80.279281,
              12.917122
            ],
            [
              80.267246,
              12.912301
            ],
            [
              80.255314,
              12.90808
            ],
            [
              80.2436,
              12.9045
            ],
            [
              80.232217,
              12.901595
            ],
            [
              80.221275,
              12.899394
            ],
            [
              80.210879,
              12.897917
            ],
            [
              80.201128,
              12.897178
            ],
            [
              80.192118,
              12.897186
            ],
            [
              80.183934,
              12.897939
            ],
            [
              80.176656,
              12.899431
            ],
            [
              80.170354,
              12.901647
            ],
            [
              80.165088,
              12.904566
            ],
            [
              80.160908,
              12.908159
            ],
            [
              80.157857,
              12.912393
            ],
            [
              80.155961,
              12.917226
            ],
            [
              80.155241,
              12.922611
            ],
            [
              80.155703,
              12.928498
            ],
            [
              80.157342,
              12.934829
            ],
            [
              80.160143,
              12.941543
            ],
            [
              80.164078,
              12.948575
            ],
            [
              80.16911,
              12.955859
            ],
            [
              80.17519,
              12.963323
            ],
            [
              80.182261,
              12.970896
            ],
            [
              80.190252,
              12.978505
            ],
            [
              80.199089,
              12.986076
            ],
            [
              80.208685,
              12.993538
            ],
            [
              80.218948,
              13.000817
            ],
            [
              80.22978,
              13.007844
            ],
            [
              80.241076,
              13.01455
            ],
            [
              80.252726,
              13.020873
            ],
            [
              80.26462,
              13.02675
            ],
            [
              80.276643,
              13.032125
            ],
            [
              80.288678,
              13.036946
            ],
            [
              80.30061,
              13.041167
            ],
            [
              80.312323,
              13.044747
            ],
            [
              80.323706,
              13.047652
            ],
            [
              80.334649,
              13.049853
            ],
            [
              80.345045,
              13.05133
            ],
            [
              80.354795,
              13.052069
            ],
            [
              80.363806,
              13.052061
            ],
            [
              80.371989,
              13.051308
            ],
            [
              80.379268,
              13.049816
            ],
            [
              80.38557,
              13.0476
            ],
            [
              80.390836,
              13.044681
            ],
            [
              80.395015,
              13.041088
            ],
            [
              80.398067,
              13.036854
            ]
          ]
        ]
      },
      "properties": {
        "horizon_h": 12,
        "valid_utc": "2017-02-02T12:39:42Z",
        "confidence_level": 0.9,
        "area_km2": 270.31,
        "source": "synthetic"
      }
    },
    {
      "type": "Feature",
      "geometry": {
        "type": "Polygon",
        "coordinates": [
          [
            [
              80.344751,
              12.95106
            ],
            [
              80.346926,
              12.945895
            ],
            [
              80.348082,
              12.940262
            ],
            [
              80.348205,
              12.934215
            ],
            [
              80.347294,
              12.927811
            ],
            [
              80.34536,
              12.921113
            ],
            [
              80.34242,
              12.914185
            ],
            [
              80.338502,
              12.907095
            ],
            [
              80.333644,
              12.899909
            ],
            [
              80.327894,
              12.892698
            ],
            [
              80.321306,
              12.88553
            ],
            [
              80.313944,
              12.878475
            ],
            [
              80.305878,
              12.871602
            ],
            [
              80.297188,
              12.864975
            ],
            [
              80.287955,
              12.858659
            ],
            [
              80.278269,
              12.852714
            ],
            [
              80.268224,
              12.847199
            ],
            [
              80.257916,
              12.842165
            ],
            [
              80.247444,
              12.837662
            ],
            [
              80.236909,
              12.833733
            ],
            [
              80.226413,
              12.830415
            ],
            [
              80.216057,
              12.827741
            ],
            [
              80.20594,
              12.825736
            ],
            [
              80.19616,
              12.82442
            ],
            [
              80.186811,
              12.823806
            ],
            [
              80.177984,
              12.823899
            ],
            [
              80.169762,
              12.824698
            ],
            [
              80.162226,
              12.826196
            ],
            [
              80.155448,
              12.828378
            ],
            [
              80.149493,
              12.831223
            ],
            [
              80.144418,
              12.834704
            ],
            [
              80.140273,
              12.838788
            ],
            [
              80.137097,
              12.843434
            ],
            [
              80.134921,
              12.848599
            ],
            [
              80.133766,
              12.854232
            ],
            [
              80.133643,
              12.86028
            ],
            [
              80.134553,
              12.866683
            ],
            [
              80.136488,
              12.873381
            ],
            [
              80.139428,
              12.880309
            ],
            [
              80.143346,
              12.8874
            ],
            [
              80.148203,
              12.894585
            ],
            [
              80.153954,
              12.901796
            ],
            [
              80.160542,
              12.908964
            ],
            [
              80.167904,
              12.916019
            ],
            [
              80.175969,
              12.922893
            ],
            [
              80.18466,
              12.929519
            ],
            [
              80.193893,
              12.935835
            ],
            [
              80.203578,
              12.94178
            ],
            [
              80.213624,
              12.947296
            ],
            [
              80.223932,
              12.952329
            ],
            [
              80.234404,
              12.956832
            ],
            [
              80.244939,
              12.960762
            ],
            [
              80.255435,
              12.964079
            ],
            [
              80.265791,
              12.966753
            ],
            [
              80.275908,
              12.968758
            ],
            [
              80.285688,
              12.970074
            ],
            [
              80.295036,
              12.970688
            ],
            [
              80.303864,
              12.970595
            ],
            [
              80.312086,
              12.969796
            ],
            [
              80.319622,
              12.968299
            ],
            [
              80.3264,
              12.966116
            ],
            [
              80.332355,
              12.963271
            ],
            [
              80.33743,
              12.95979
            ],
            [
              80.341575,
              12.955706
            ],
            [
              80.344751,
              12.95106
            ]
          ]
        ]
      },
      "properties": {
        "horizon_h": 24,
        "valid_utc": "2017-02-03T00:39:42Z",
        "confidence_level": 0.5,
        "area_km2": 252.947,
        "source": "synthetic"
      }
    },
    {
      "type": "Feature",
      "geometry": {
        "type": "Polygon",
        "coordinates": [
          [
            [
              80.417429,
              12.988729
            ],
            [
              80.421128,
              12.979949
            ],
            [
              80.423092,
              12.970372
            ],
            [
              80.423301,
              12.960092
            ],
            [
              80.421754,
              12.949206
            ],
            [
              80.418465,
              12.937819
            ],
            [
              80.413467,
              12.926042
            ],
            [
              80.406807,
              12.913988
            ],
            [
              80.398549,
              12.901772
            ],
            [
              80.388773,
              12.889513
            ],
            [
              80.377573,
              12.877328
            ],
            [
              80.365058,
              12.865335
            ],
            [
              80.351347,
              12.85365
            ],
            [
              80.336572,
              12.842384
            ],
            [
              80.320877,
              12.831647
            ],
            [
              80.304411,
              12.821541
            ],
            [
              80.287334,
              12.812165
            ],
            [
              80.26981,
              12.803607
            ],
            [
              80.252007,
              12.795952
            ],
            [
              80.234099,
              12.789272
            ],
            [
              80.216255,
              12.783632
            ],
            [
              80.19865,
              12.779087
            ],
            [
              80.181451,
              12.775679
            ],
            [
              80.164825,
              12.773442
            ],
            [
              80.148932,
              12.772397
            ],
            [
              80.133925,
              12.772555
            ],
            [
              80.119949,
              12.773913
            ],
            [
              80.107137,
              12.77646
            ],
            [
              80.095614,
              12.780169
            ],
            [
              80.085491,
              12.785006
            ],
            [
              80.076864,
              12.790924
            ],
            [
              80.069817,
              12.797866
            ],
            [
              80.064418,
              12.805765
            ],
            [
              80.060719,
              12.814545
            ],
            [
              80.058756,
              12.824122
            ],
            [
              80.058546,
              12.834402
            ],
            [
              80.060094,
              12.845288
            ],
            [
              80.063382,
              12.856675
            ],
            [
              80.068381,
              12.868452
            ],
            [
              80.075041,
              12.880506
            ],
            [
              80.083299,
              12.892722
            ],
            [
              80.093074,
              12.904981
            ],
            [
              80.104274,
              12.917166
            ],
            [
              80.11679,
              12.929159
            ],
            [
              80.130501,
              12.940844
            ],
            [
              80.145275,
              12.95211
            ],
            [
              80.160971,
              12.962847
            ],
            [
              80.177437,
              12.972953
            ],
            [
              80.194514,
              12.98233
            ],
            [
              80.212038,
              12.990887
            ],
            [
              80.22984,
              12.998542
            ],
            [
              80.247749,
              13.005222
            ],
            [
              80.265592,
              13.010862
            ],
            [
              80.283198,
              13.015407
            ],
            [
              80.300397,
              13.018815
            ],
            [
              80.317022,
              13.021052
            ],
            [
              80.332915,
              13.022097
            ],
            [
              80.347922,
              13.021939
            ],
            [
              80.361899,
              13.020581
            ],
            [
              80.37471,
              13.018035
            ],
            [
              80.386233,
              13.014325
            ],
            [
              80.396357,
              13.009488
            ],
            [
              80.404984,
              13.00357
            ],
            [
              80.41203,
              12.996628
            ],
            [
              80.417429,
              12.988729
            ]
          ]
        ]
      },
      "properties": {
        "horizon_h": 24,
        "valid_utc": "2017-02-03T00:39:42Z",
        "confidence_level": 0.9,
        "area_km2": 731.017,
        "source": "synthetic"
      }
    }
  ]
}
