{
  "type": "FeatureCollection",
  "metadata": {
    "scene_id": "S1A_IW_GRDH_20170202T0039_DEMO-A",
    "detected_utc": "2017-02-02T00:53:42Z",
    "acquired_utc": "2017-02-02T00:39:42Z",
    "model_version": "mock-v0",
    "mask_path": "contracts/mocks/raw_mask.tif",
    "crs": "EPSG:4326"
  },
  "features": [
    {
      "type": "Feature",
      "geometry": {
        "type": "Polygon",
        "coordinates": [
          [
            [
              80.352453,
              13.0714
            ],
            [
              80.352506,
              13.070879
            ],
            [
              80.352198,
              13.070176
            ],
            [
              80.351531,
              13.069298
            ],
            [
              80.350513,
              13.068254
            ],
            [
              80.349153,
              13.067053
            ],
            [
              80.347464,
              13.065707
            ],
            [
              80.345462,
              13.064229
            ],
            [
              80.343167,
              13.062633
            ],
            [
              80.340601,
              13.060935
            ],
            [
              80.337788,
              13.059151
            ],
            [
              80.334755,
              13.057298
            ],
            [
              80.331532,
              13.055394
            ],
            [
              80.328151,
              13.053457
            ],
            [
              80.324642,
              13.051506
            ],
            [
              80.321041,
              13.04956
            ],
            [
              80.317381,
              13.047638
            ],
            [
              80.313699,
              13.045757
            ],
            [
              80.310029,
              13.043937
            ],
            [
              80.306406,
              13.042194
            ],
            [
              80.302867,
              13.040546
            ],
            [
              80.299445,
              13.039008
            ],
            [
              80.296172,
              13.037595
            ],
            [
              80.293081,
              13.036321
            ],
            [
              80.2902,
              13.035198
            ],
            [
              80.287559,
              13.034236
            ],
            [
              80.285182,
              13.033446
            ],
            [
              80.283092,
              13.032835
            ],
            [
              80.281309,
              13.032408
            ],
            [
              80.279851,
              13.032169
            ],
            [
              80.278731,
              13.032122
            ],
            [
              80.277961,
              13.032266
            ],
            [
              80.277547,
              13.0326
            ],
            [
              80.277494,
              13.033121
            ],
            [
              80.277802,
              13.033824
            ],
            [
              80.278469,
              13.034702
            ],
            [
              80.279487,
              13.035746
            ],
            [
              80.280847,
              13.036947
            ],
            [
              80.282536,
              13.038293
            ],
            [
              80.284538,
              13.039771
            ],
            [
              80.286833,
              13.041367
            ],
            [
              80.289399,
              13.043065
            ],
            [
              80.292212,
              13.044849
            ],
            [
              80.295245,
              13.046702
            ],
            [
              80.298468,
              13.048606
            ],
            [
              80.301849,
              13.050543
            ],
            [
              80.305358,
              13.052494
            ],
            [
              80.308959,
              13.05444
            ],
            [
              80.312619,
              13.056362
            ],
            [
              80.316301,
              13.058243
            ],
            [
              80.319971,
              13.060063
            ],
            [
              80.323594,
              13.061806
            ],
            [
              80.327133,
              13.063454
            ],
            [
              80.330555,
              13.064992
            ],
            [
              80.333828,
              13.066405
            ],
            [
              80.336919,
              13.067679
            ],
            [
              80.3398,
              13.068802
            ],
            [
              80.342441,
              13.069764
            ],
            [
              80.344818,
              13.070554
            ],
            [
              80.346908,
              13.071165
            ],
            [
              80.348691,
              13.071592
            ],
            [
              80.350149,
              13.071831
            ],
            [
              80.351269,
              13.071878
            ],
            [
              80.352039,
              13.071734
            ],
            [
              80.352453,
              13.0714
            ]
          ]
        ]
      },
      "properties": {
        "slick_id": "slick-001",
        "confidence": 0.91,
        "area_km2": 7.903,
        "perimeter_km": 20.583,
        "centroid": [
          80.315,
          13.052
        ],
        "major_axis_m": 9200.0,
        "minor_axis_m": 1100.0,
        "orientation_deg": 62.0,
        "damping_ratio": 13.8,
        "age_hours_estimate": 9.5,
        "age_confidence": 0.35,
        "engine": "ml",
        "source": "synthetic"
      }
    }
  ]
}
