{
  "type": "FeatureCollection",
  "features": [
    {
      "type": "Feature",
      "geometry": {
        "type": "Polygon",
        "coordinates": [
          [
            [
              80.290341,
              13.051574
            ],
            [
              80.291649,
              13.054311
            ],
            [
              80.296278,
              13.058873
            ],
            [
              80.297182,
              13.059648
            ],
            [
              80.301591,
              13.061022
            ],
            [
              80.303704,
              13.064708
            ],
            [
              80.311101,
              13.065834
            ],
            [
              80.314507,
              13.068224
            ],
            [
              80.317471,
              13.06952
            ],
            [
              80.324124,
              13.07155
            ],
            [
              80.331417,
              13.069919
            ],
            [
              80.335513,
              13.069972
            ],
            [
              80.338155,
              13.074839
            ],
            [
              80.339573,
              13.076003
            ],
            [
              80.346424,
              13.075954
            ],
            [
              80.353859,
              13.077594
            ],
            [
              80.35571,
              13.076098
            ],
            [
              80.361871,
              13.075581
            ],
            [
              80.363174,
              13.075337
            ],
            [
              80.370207,
              13.074469
            ],
            [
              80.371065,
              13.073528
            ],
            [
              80.368384,
              13.068316
            ],
            [
              80.364517,
              13.063181
            ],
            [
              80.360442,
              13.060541
            ],
            [
              80.356266,
              13.058218
            ],
            [
              80.353166,
              13.056434
            ],
            [
              80.34622,
              13.054741
            ],
            [
              80.343317,
              13.058247
            ],
            [
              80.338251,
              13.054066
            ],
            [
              80.337336,
              13.05178
            ],
            [
              80.332374,
              13.050844
            ],
            [
              80.326033,
              13.050308
            ],
            [
              80.32189,
              13.048578
            ],
            [
              80.318654,
              13.047195
            ],
            [
              80.312441,
              13.045595
            ],
            [
              80.308316,
              13.049135
            ],
            [
              80.303603,
              13.048295
            ],
            [
              80.301383,
              13.046644
            ],
            [
              80.300179,
              13.047893
            ],
            [
              80.299422,
              13.048556
            ],
            [
              80.292483,
              13.045862
            ],
            [
              80.29207,
              13.046743
            ],
            [
              80.290341,
              13.051574
            ]
          ]
        ]
      },
      "properties": {
        "horizon_h": 6.0,
        "uncertainty_growth": 1.273,
        "level": 0.9,
        "time_utc": "2017-02-02T06:39:42Z",
        "area_km2": 16.489,
        "ellipse_area_km2": 21.591,
        "particles_used": 281,
        "particles_total": 300,
        "hull_method": "concave",
        "engine_used": "euler"
      }
    },
    {
      "type": "Feature",
      "geometry": {
        "type": "Polygon",
        "coordinates": [
          [
            [
              80.301816,
              13.065394
            ],
            [
              80.303298,
              13.067493
            ],
            [
              80.30913,
              13.073211
            ],
            [
              80.318505,
              13.074402
            ],
            [
              80.32262,
              13.077354
            ],
            [
              80.331889,
              13.076927
            ],
            [
              80.338992,
              13.080537
            ],
            [
              80.345296,
              13.080985
            ],
            [
              80.348816,
              13.07947
            ],
            [
              80.357864,
              13.078402
            ],
            [
              80.365599,
              13.082484
            ],
            [
              80.368279,
              13.083748
            ],
            [
              80.374276,
              13.083883
            ],
            [
              80.383361,
              13.082419
            ],
            [
              80.38606,
              13.081825
            ],
            [
              80.395966,
              13.081899
            ],
            [
              80.404022,
              13.080292
            ],
            [
              80.403877,
              13.078893
            ],
            [
              80.402934,
              13.074732
            ],
            [
              80.396067,
              13.068924
            ],
            [
              80.389319,
              13.068237
            ],
            [
              80.383807,
              13.06343
            ],
            [
              80.37887,
              13.06586
            ],
            [
              80.376951,
              13.066517
            ],
            [
              80.372564,
              13.067358
            ],
            [
              80.367664,
              13.059607
            ],
            [
              80.363447,
              13.060525
            ],
            [
              80.354021,
              13.057934
            ],
            [
              80.351854,
              13.058034
            ],
            [
              80.343609,
              13.058562
            ],
            [
              80.33949,
              13.057244
            ],
            [
              80.331686,
              13.058219
            ],
            [
              80.328756,
              13.057465
            ],
            [
              80.324367,
              13.055821
            ],
            [
              80.319571,
              13.054587
            ],
            [
              80.313675,
              13.055168
            ],
            [
              80.309061,
              13.060395
            ],
            [
              80.301689,
              13.062062
            ],
            [
              80.301165,
              13.062959
            ],
            [
              80.301816,
              13.065394
            ]
          ]
        ]
      },
      "properties": {
        "horizon_h": 12.0,
        "uncertainty_growth": 1.689,
        "level": 0.9,
        "time_utc": "2017-02-02T12:39:42Z",
        "area_km2": 21.666,
        "ellipse_area_km2": 28.631,
        "particles_used": 279,
        "particles_total": 300,
        "hull_method": "concave",
        "engine_used": "euler"
      }
    },
    {
      "type": "Feature",
      "geometry": {
        "type": "Polygon",
        "coordinates": [
          [
            [
              80.315434,
              13.072982
            ],
            [
              80.312256,
              13.07543
            ],
            [
              80.320308,
              13.079723
            ],
            [
              80.327793,
              13.08026
            ],
            [
              80.341319,
              13.083316
            ],
            [
              80.348487,
              13.084063
            ],
            [
              80.363084,
              13.088211
            ],
            [
              80.370687,
              13.087958
            ],
            [
              80.385448,
              13.088811
            ],
            [
              80.387976,
              13.088057
            ],
            [
              80.401459,
              13.085819
            ],
            [
              80.412953,
              13.089047
            ],
            [
              80.416758,
              13.092192
            ],
            [
              80.419319,
              13.091283
            ],
            [
              80.426441,
              13.089523
            ],
            [
              80.436798,
              13.092511
            ],
            [
              80.446234,
              13.093469
            ],
            [
              80.45083,
              13.091063
            ],
            [
              80.457466,
              13.08798
            ],
            [
              80.465246,
              13.087551
            ],
            [
              80.475178,
              13.092808
            ],
            [
              80.481861,
              13.092599
            ],
            [
              80.486487,
              13.091184
            ],
            [
              80.49348,
              13.088644
            ],
            [
              80.503168,
              13.082219
            ],
            [
              80.493913,
              13.077217
            ],
            [
              80.483302,
              13.077134
            ],
            [
              80.469305,
              13.074717
            ],
            [
              80.463183,
              13.074818
            ],
            [
              80.456218,
              13.074777
            ],
            [
              80.440579,
              13.070687
            ],
            [
              80.43067,
              13.070698
            ],
            [
              80.414733,
              13.068367
            ],
            [
              80.400937,
              13.07034
            ],
            [
              80.39423,
              13.069759
            ],
            [
              80.380424,
              13.066585
            ],
            [
              80.367587,
              13.072048
            ],
            [
              80.36289,
              13.071441
            ],
            [
              80.359788,
              13.071776
            ],
            [
              80.346899,
              13.070162
            ],
            [
              80.342787,
              13.067592
            ],
            [
              80.335681,
              13.068753
            ],
            [
              80.332296,
              13.069672
            ],
            [
              80.329079,
              13.075477
            ],
            [
              80.315434,
              13.072982
            ]
          ]
        ]
      },
      "properties": {
        "horizon_h": 24.0,
        "uncertainty_growth": 2.861,
        "level": 0.9,
        "time_utc": "2017-02-03T00:39:42Z",
        "area_km2": 35.316,
        "ellipse_area_km2": 48.515,
        "particles_used": 276,
        "particles_total": 300,
        "hull_method": "concave",
        "engine_used": "euler"
      }
    }
  ]
}
