{
  "type": "FeatureCollection",
  "features": [
    {
      "type": "Feature",
      "geometry": {
        "type": "Polygon",
        "coordinates": [
          [
            [
              80.335982,
              13.071318
            ],
            [
              80.328882,
              13.070218
            ],
            [
              80.324482,
              13.069018
            ],
            [
              80.318682,
              13.067018
            ],
            [
              80.312482,
              13.064418
            ],
            [
              80.305982,
              13.061218
            ],
            [
              80.298382,
              13.056818
            ],
            [
              80.293482,
              13.053518
            ],
            [
              80.289182,
              13.050218
            ],
            [
              80.283582,
              13.044918
            ],
            [
              80.280982,
              13.041518
            ],
            [
              80.279782,
              13.039118
            ],
            [
              80.279382,
              13.037218
            ],
            [
              80.279782,
              13.035218
            ],
            [
              80.280582,
              13.034218
            ],
            [
              80.281682,
              13.033518
            ],
            [
              80.284982,
              13.032718
            ],
            [
              80.290482,
              13.032918
            ],
            [
              80.296482,
              13.034118
            ],
            [
              80.304082,
              13.036518
            ],
            [
              80.311382,
              13.039518
            ],
            [
              80.319382,
              13.043518
            ],
            [
              80.325982,
              13.047418
            ],
            [
              80.332982,
              13.052318
            ],
            [
              80.337282,
              13.055918
            ],
            [
              80.341782,
              13.060718
            ],
            [
              80.343982,
              13.064318
            ],
            [
              80.344482,
              13.065818
            ],
            [
              80.344582,
              13.067618
            ],
            [
              80.344082,
              13.069018
            ],
            [
              80.343482,
              13.069718
            ],
            [
              80.341982,
              13.070618
            ],
            [
              80.340682,
              13.071018
            ],
            [
              80.338582,
              13.071318
            ],
            [
              80.335982,
              13.071318
            ]
          ]
        ]
      },
      "properties": {
        "slick_id": "DEMO-A_slick_01",
        "scene_id": "S1A_IW_GRDH_20170202T0039_DEMO-A",
        "detected_utc": "2017-02-02T00:39:42Z",
        "confidence": 0.91,
        "area_km2": 14.89,
        "perimeter_km": 17.375,
        "centroid": [
          80.312001,
          13.052001
        ],
        "major_axis_km": 7.9,
        "minor_axis_km": 2.4,
        "orientation_deg": 62.0,
        "damping_ratio_db": 7.01,
        "age_hours_est": 29.77,
        "age_method": "damping+fay",
        "age_confidence": "low"
      }
    },
    {
      "type": "Feature",
      "geometry": {
        "type": "Polygon",
        "coordinates": [
          [
            [
              80.279382,
              13.089518
            ],
            [
              80.278082,
              13.089218
            ],
            [
              80.277282,
              13.088718
            ],
            [
              80.276682,
              13.088018
            ],
            [
              80.276082,
              13.086618
            ],
            [
              80.275982,
              13.083918
            ],
            [
              80.276782,
              13.081018
            ],
            [
              80.278482,
              13.078118
            ],
            [
              80.280682,
              13.075918
            ],
            [
              80.282182,
              13.075018
            ],
            [
              80.283382,
              13.074618
            ],
            [
              80.284982,
              13.074518
            ],
            [
              80.285782,
              13.074718
            ],
            [
              80.287282,
              13.075918
            ],
            [
              80.287982,
              13.077718
            ],
            [
              80.287982,
              13.080318
            ],
            [
              80.286982,
              13.083518
            ],
            [
              80.285582,
              13.085818
            ],
            [
              80.283782,
              13.087718
            ],
            [
              80.281482,
              13.089118
            ],
            [
              80.279382,
              13.089518
            ]
          ]
        ]
      },
      "properties": {
        "slick_id": "DEMO-A_slick_02",
        "scene_id": "S1A_IW_GRDH_20170202T0039_DEMO-A",
        "detected_utc": "2017-02-02T00:39:42Z",
        "confidence": 0.91,
        "area_km2": 1.555,
        "perimeter_km": 4.64,
        "centroid": [
          80.282,
          13.081998
        ],
        "major_axis_km": 1.8,
        "minor_axis_km": 1.1,
        "orientation_deg": 150.0,
        "damping_ratio_db": 7.0,
        "age_hours_est": 6.61,
        "age_method": "damping+fay",
        "age_confidence": "low"
      }
    }
  ]
}
